HULIANWANG JISHU SHIYAN*
1 57288U 23095A   26196.19280900  .00000030  00000+0  27312-4 0  9993
2 57288  86.5044 355.0792 0019470 111.1848 249.1378 13.39544392147509
HULIANWANG JISHU SHIYAN*
1 57289U 23095B   26196.18430481  .00000023  00000+0  14230-4 0  9991
2 57289  86.5045 355.0915 0018070 109.2529 251.0570 13.39553000147509
HULIANWANG JISHU SHIYAN*
1 58691U 23212A   26196.16390731 -.00000094  00000+0  61249-4 0  9992
2 58691  49.9990 241.2443 0001238 219.1638 140.9150 13.41459006125006
HULIANWANG JISHU SHIYAN*
1 58692U 23212B   26196.15719650 -.00000097  00000+0  55664-4 0  9994
2 58692  49.9959 241.6265 0001395 208.9071 151.1729 13.41460129125003
HULIANWANG JISHU SHIYAN*
1 58693U 23212C   26196.16044208 -.00000091  00000+0  67469-4 0  9996
2 58693  49.9973 241.7415 0001243 198.1906 161.8927 13.41461972125013
HULIANWANG DIGUI-01     
1 62323U 24240A   26196.17781145  .00000043  00000+0  65412-4 0  9994
2 62323  86.5019 333.7947 0001963 105.3363 254.7988 13.24411546 76347
HULIANWANG DIGUI-02     
1 62324U 24240B   26196.18527198  .00000037  00000+0  52537-4 0  9999
2 62324  86.5048 333.9592 0001932 105.6028 254.5319 13.24411503 76355
HULIANWANG DIGUI-03     
1 62325U 24240C   26196.17023666  .00000037  00000+0  52164-4 0  9996
2 62325  86.5001 333.6946 0002001 103.7943 256.3414 13.24410110 76346
HULIANWANG DIGUI-04     
1 62326U 24240D   26196.16269929  .00000023  00000+0  20346-4 0  9992
2 62326  86.5011 333.7405 0002124 103.8414 256.2957 13.24410380 76349
HULIANWANG DIGUI-05     
1 62327U 24240E   26196.15514657  .00000011  00000+0 -90302-5 0  9991
2 62327  86.5063 334.0289 0002177 101.6606 258.4772 13.24411038 76348
HULIANWANG DIGUI-06     
1 62328U 24240F   26196.14003689 -.00000005  00000+0 -45628-4 0  9993
2 62328  86.5001 333.6736 0002100 108.2452 251.8911 13.24408556 76344
HULIANWANG DIGUI-07     
1 62329U 24240G   26196.13246814 -.00000001  00000+0 -35405-4 0  9990
2 62329  86.4971 333.5068 0002010 105.7949 254.3407 13.24411022 76340
HULIANWANG DIGUI-08     
1 62330U 24240H   26196.14758954  .00000002  00000+0 -29023-4 0  9995
2 62330  86.5055 333.9780 0002243 101.7023 258.4363 13.24411321 76346
HULIANWANG DIGUI-09     
1 62331U 24240J   26196.20046449  .00000007  00000+0 -18134-4 0  9998
2 62331  86.5021 333.8121 0001983 103.8198 256.3157 13.24409976 76345
HULIANWANG DIGUI-10     
1 62332U 24240K   26196.19291419  .00000024  00000+0  21953-4 0  9997
2 62332  86.5051 333.9757 0002061 106.5490 253.5871 13.24410786 76341
HULIANWANG DIGUI-11     
1 62971U 25030A   26196.20217466 -.00000112  00000+0  26902-4 0  9994
2 62971  49.9999 135.3385 0000996 273.3700  86.7058 13.29324440 69584
