{"fetched_at":"2026-07-15T17:47:13.894Z","source":"https://celestrak.org/NORAD/elements/gp.php?NAME=HULIANWANG&FORMAT=JSON","constellation":"guowang","records":[{"OBJECT_NAME":"HULIANWANG JISHU SHIYAN A","OBJECT_ID":"2023-095A","EPOCH":"2026-07-15T04:37:38.697600","CLASSIFICATION_TYPE":"U","MEAN_MOTION":13.39544392,"ECCENTRICITY":0.001947,"INCLINATION":86.5044,"RA_OF_ASC_NODE":355.0792,"ARG_OF_PERICENTER":111.1848,"MEAN_ANOMALY":249.1378,"EPHEMERIS_TYPE":0,"NORAD_CAT_ID":57288,"ELEMENT_SET_NO":999,"REV_AT_EPOCH":14750,"BSTAR":0.000027312,"MEAN_MOTION_DOT":3e-7,"MEAN_MOTION_DDOT":0},{"OBJECT_NAME":"HULIANWANG JISHU SHIYAN B","OBJECT_ID":"2023-095B","EPOCH":"2026-07-15T04:25:23.935584","CLASSIFICATION_TYPE":"U","MEAN_MOTION":13.39553,"ECCENTRICITY":0.001807,"INCLINATION":86.5045,"RA_OF_ASC_NODE":355.0915,"ARG_OF_PERICENTER":109.2529,"MEAN_ANOMALY":251.057,"EPHEMERIS_TYPE":0,"NORAD_CAT_ID":57289,"ELEMENT_SET_NO":999,"REV_AT_EPOCH":14750,"BSTAR":0.00001423,"MEAN_MOTION_DOT":2.3e-7,"MEAN_MOTION_DDOT":0},{"OBJECT_NAME":"HULIANWANG JISHU SHIYAN 4A","OBJECT_ID":"2023-212A","EPOCH":"2026-07-15T03:56:01.591584","CLASSIFICATION_TYPE":"U","MEAN_MOTION":13.41459006,"ECCENTRICITY":0.0001238,"INCLINATION":49.999,"RA_OF_ASC_NODE":241.2443,"ARG_OF_PERICENTER":219.1638,"MEAN_ANOMALY":140.915,"EPHEMERIS_TYPE":0,"NORAD_CAT_ID":58691,"ELEMENT_SET_NO":999,"REV_AT_EPOCH":12500,"BSTAR":0.000061249,"MEAN_MOTION_DOT":-9.4e-7,"MEAN_MOTION_DDOT":0},{"OBJECT_NAME":"HULIANWANG JISHU SHIYAN 4B","OBJECT_ID":"2023-212B","EPOCH":"2026-07-15T03:46:21.777600","CLASSIFICATION_TYPE":"U","MEAN_MOTION":13.41460129,"ECCENTRICITY":0.0001395,"INCLINATION":49.9959,"RA_OF_ASC_NODE":241.6265,"ARG_OF_PERICENTER":208.9071,"MEAN_ANOMALY":151.1729,"EPHEMERIS_TYPE":0,"NORAD_CAT_ID":58692,"ELEMENT_SET_NO":999,"REV_AT_EPOCH":12500,"BSTAR":0.000055664,"MEAN_MOTION_DOT":-9.7e-7,"MEAN_MOTION_DDOT":0},{"OBJECT_NAME":"HULIANWANG JISHU SHIYAN 4C","OBJECT_ID":"2023-212C","EPOCH":"2026-07-15T03:51:02.195712","CLASSIFICATION_TYPE":"U","MEAN_MOTION":13.41461972,"ECCENTRICITY":0.0001243,"INCLINATION":49.9973,"RA_OF_ASC_NODE":241.7415,"ARG_OF_PERICENTER":198.1906,"MEAN_ANOMALY":161.8927,"EPHEMERIS_TYPE":0,"NORAD_CAT_ID":58693,"ELEMENT_SET_NO":999,"REV_AT_EPOCH":12501,"BSTAR":0.000067469,"MEAN_MOTION_DOT":-9.1e-7,"MEAN_MOTION_DDOT":0},{"OBJECT_NAME":"HULIANWANG DIGUI-01","OBJECT_ID":"2024-240A","EPOCH":"2026-07-15T04:16:02.909280","CLASSIFICATION_TYPE":"U","MEAN_MOTION":13.24411546,"ECCENTRICITY":0.0001963,"INCLINATION":86.5019,"RA_OF_ASC_NODE":333.7947,"ARG_OF_PERICENTER":105.3363,"MEAN_ANOMALY":254.7988,"EPHEMERIS_TYPE":0,"NORAD_CAT_ID":62323,"ELEMENT_SET_NO":999,"REV_AT_EPOCH":7634,"BSTAR":0.000065412,"MEAN_MOTION_DOT":4.3e-7,"MEAN_MOTION_DDOT":0},{"OBJECT_NAME":"HULIANWANG DIGUI-02","OBJECT_ID":"2024-240B","EPOCH":"2026-07-15T04:26:47.499072","CLASSIFICATION_TYPE":"U","MEAN_MOTION":13.24411503,"ECCENTRICITY":0.0001932,"INCLINATION":86.5048,"RA_OF_ASC_NODE":333.9592,"ARG_OF_PERICENTER":105.6028,"MEAN_ANOMALY":254.5319,"EPHEMERIS_TYPE":0,"NORAD_CAT_ID":62324,"ELEMENT_SET_NO":999,"REV_AT_EPOCH":7635,"BSTAR":0.000052537,"MEAN_MOTION_DOT":3.7e-7,"MEAN_MOTION_DDOT":0},{"OBJECT_NAME":"HULIANWANG DIGUI-03","OBJECT_ID":"2024-240C","EPOCH":"2026-07-15T04:05:08.447424","CLASSIFICATION_TYPE":"U","MEAN_MOTION":13.2441011,"ECCENTRICITY":0.0002001,"INCLINATION":86.5001,"RA_OF_ASC_NODE":333.6946,"ARG_OF_PERICENTER":103.7943,"MEAN_ANOMALY":256.3414,"EPHEMERIS_TYPE":0,"NORAD_CAT_ID":62325,"ELEMENT_SET_NO":999,"REV_AT_EPOCH":7634,"BSTAR":0.000052164,"MEAN_MOTION_DOT":3.7e-7,"MEAN_MOTION_DDOT":0},{"OBJECT_NAME":"HULIANWANG DIGUI-04","OBJECT_ID":"2024-240D","EPOCH":"2026-07-15T03:54:17.218656","CLASSIFICATION_TYPE":"U","MEAN_MOTION":13.2441038,"ECCENTRICITY":0.0002124,"INCLINATION":86.5011,"RA_OF_ASC_NODE":333.7405,"ARG_OF_PERICENTER":103.8414,"MEAN_ANOMALY":256.2957,"EPHEMERIS_TYPE":0,"NORAD_CAT_ID":62326,"ELEMENT_SET_NO":999,"REV_AT_EPOCH":7634,"BSTAR":0.000020346,"MEAN_MOTION_DOT":2.3e-7,"MEAN_MOTION_DDOT":0},{"OBJECT_NAME":"HULIANWANG DIGUI-05","OBJECT_ID":"2024-240E","EPOCH":"2026-07-15T03:43:24.663648","CLASSIFICATION_TYPE":"U","MEAN_MOTION":13.24411038,"ECCENTRICITY":0.0002177,"INCLINATION":86.5063,"RA_OF_ASC_NODE":334.0289,"ARG_OF_PERICENTER":101.6606,"MEAN_ANOMALY":258.4772,"EPHEMERIS_TYPE":0,"NORAD_CAT_ID":62327,"ELEMENT_SET_NO":999,"REV_AT_EPOCH":7634,"BSTAR":-0.0000090302,"MEAN_MOTION_DOT":1.1e-7,"MEAN_MOTION_DDOT":0},{"OBJECT_NAME":"HULIANWANG DIGUI-06","OBJECT_ID":"2024-240F","EPOCH":"2026-07-15T03:21:39.187296","CLASSIFICATION_TYPE":"U","MEAN_MOTION":13.24408556,"ECCENTRICITY":0.00021,"INCLINATION":86.5001,"RA_OF_ASC_NODE":333.6736,"ARG_OF_PERICENTER":108.2452,"MEAN_ANOMALY":251.8911,"EPHEMERIS_TYPE":0,"NORAD_CAT_ID":62328,"ELEMENT_SET_NO":999,"REV_AT_EPOCH":7634,"BSTAR":-0.000045628,"MEAN_MOTION_DOT":-5e-8,"MEAN_MOTION_DDOT":0},{"OBJECT_NAME":"HULIANWANG DIGUI-07","OBJECT_ID":"2024-240G","EPOCH":"2026-07-15T03:10:45.247296","CLASSIFICATION_TYPE":"U","MEAN_MOTION":13.24411022,"ECCENTRICITY":0.000201,"INCLINATION":86.4971,"RA_OF_ASC_NODE":333.5068,"ARG_OF_PERICENTER":105.7949,"MEAN_ANOMALY":254.3407,"EPHEMERIS_TYPE":0,"NORAD_CAT_ID":62329,"ELEMENT_SET_NO":999,"REV_AT_EPOCH":7634,"BSTAR":-0.000035405,"MEAN_MOTION_DOT":-1e-8,"MEAN_MOTION_DDOT":0},{"OBJECT_NAME":"HULIANWANG DIGUI-08","OBJECT_ID":"2024-240H","EPOCH":"2026-07-15T03:32:31.736256","CLASSIFICATION_TYPE":"U","MEAN_MOTION":13.24411321,"ECCENTRICITY":0.0002243,"INCLINATION":86.5055,"RA_OF_ASC_NODE":333.978,"ARG_OF_PERICENTER":101.7023,"MEAN_ANOMALY":258.4363,"EPHEMERIS_TYPE":0,"NORAD_CAT_ID":62330,"ELEMENT_SET_NO":999,"REV_AT_EPOCH":7634,"BSTAR":-0.000029023,"MEAN_MOTION_DOT":2e-8,"MEAN_MOTION_DDOT":0},{"OBJECT_NAME":"HULIANWANG DIGUI-09","OBJECT_ID":"2024-240J","EPOCH":"2026-07-15T04:48:40.131936","CLASSIFICATION_TYPE":"U","MEAN_MOTION":13.24409976,"ECCENTRICITY":0.0001983,"INCLINATION":86.5021,"RA_OF_ASC_NODE":333.8121,"ARG_OF_PERICENTER":103.8198,"MEAN_ANOMALY":256.3157,"EPHEMERIS_TYPE":0,"NORAD_CAT_ID":62331,"ELEMENT_SET_NO":999,"REV_AT_EPOCH":7634,"BSTAR":-0.000018134,"MEAN_MOTION_DOT":7e-8,"MEAN_MOTION_DDOT":0},{"OBJECT_NAME":"HULIANWANG DIGUI-10","OBJECT_ID":"2024-240K","EPOCH":"2026-07-15T04:37:47.786016","CLASSIFICATION_TYPE":"U","MEAN_MOTION":13.24410786,"ECCENTRICITY":0.0002061,"INCLINATION":86.5051,"RA_OF_ASC_NODE":333.9757,"ARG_OF_PERICENTER":106.549,"MEAN_ANOMALY":253.5871,"EPHEMERIS_TYPE":0,"NORAD_CAT_ID":62332,"ELEMENT_SET_NO":999,"REV_AT_EPOCH":7634,"BSTAR":0.000021953,"MEAN_MOTION_DOT":2.4e-7,"MEAN_MOTION_DDOT":0},{"OBJECT_NAME":"HULIANWANG DIGUI-11","OBJECT_ID":"2025-030A","EPOCH":"2026-07-15T04:51:07.890624","CLASSIFICATION_TYPE":"U","MEAN_MOTION":13.2932444,"ECCENTRICITY":0.0000996,"INCLINATION":49.9999,"RA_OF_ASC_NODE":135.3385,"ARG_OF_PERICENTER":273.37,"MEAN_ANOMALY":86.7058,"EPHEMERIS_TYPE":0,"NORAD_CAT_ID":62971,"ELEMENT_SET_NO":999,"REV_AT_EPOCH":6958,"BSTAR":0.000026902,"MEAN_MOTION_DOT":-0.00000112,"MEAN_MOTION_DDOT":0}]}
